STARLINK-5702           
1 55622U 23020BF  23169.85913366  .00052631  00000+0  39168-2 0  9994
2 55622  43.0047 357.0661 0001456 270.6317  89.4358 15.02198603 19428
STARLINK-5698           
1 55623U 23020BG  23169.98550494  .00008673  00000+0  65510-3 0  9996
2 55623  43.0054 356.2912 0001876 279.6125  80.4506 15.02608378 19442
STARLINK-5484           
1 55628U 23021A   23169.81620506 -.00000119  00000+0 -21950-5 0  9997
2 55628  69.9983 192.9701 0003466 268.0638  92.0125 14.98331421 19277
STARLINK-5497           
1 55629U 23021B   23169.48658114 -.00000399  00000+0 -25621-4 0  9995
2 55629  69.9981 193.8270 0003828 268.0041  92.0680 14.98330619 19226
STARLINK-5303           
1 55630U 23021C   23169.81203169 -.00000077  00000+0  13651-5 0  9993
2 55630  69.9981 192.9553 0003840 269.2467  90.8252 14.98330718 19277
STARLINK-5558           
1 55631U 23021D   23169.78698676 -.00000474  00000+0 -31942-4 0  9995
2 55631  69.9985 192.8680 0003817 268.1204  91.9518 14.98330049 19277
STARLINK-5546           
1 55632U 23021E   23169.80368640  .00001678  00000+0  14840-3 0  9996
2 55632  69.9985 192.9260 0003748 262.3752  97.6981 14.98319429 19276
STARLINK-5498           
1 55633U 23021F   23169.79950965 -.00000249  00000+0 -13062-4 0  9993
2 55633  69.9984 192.9118 0003954 268.8685  91.2021 14.98330126 19275
STARLINK-5500           
1 55634U 23021G   23169.80786151 -.00000123  00000+0 -24929-5 0  9996
2 55634  69.9980 192.9396 0003906 269.7351  90.3360 14.98329285 19277
STARLINK-5495           
1 55635U 23021H   23170.16667824 -.00951569  00000+0 -61331-1 0  9996
2 55635  69.9981 172.3426 0003361 268.4380  65.7345 15.11159195 19511
STARLINK-5218           
1 55636U 23021J   23170.05819699  .00000432  00000+0  44019-4 0  9993
2 55636  69.9983 192.2100 0005142 266.9225  93.1346 14.98328836 19019
STARLINK-5062           
1 55637U 23021K   23169.91667824 -.00883456  00000+0 -55553-1 0  9997
2 55637  69.9979 172.9671 0003254 268.5055 162.3552 15.11837802  1309
STARLINK-5507           
1 55638U 23021L   23169.79533538 -.00000567  00000+0 -39750-4 0  9996
2 55638  69.9983 192.8952 0003895 268.4439  91.6273 14.98329711 19272
STARLINK-5508           
1 55639U 23021M   23170.16667824 -.00952714  00000+0 -59245-1 0  9994
2 55639  69.9988 172.2307 0003213 271.2033 161.4405 15.12446976 19510
