[{
    "OBJECT_NAME": "STARLINK-5702",
    "OBJECT_ID": "2023-020BF",
    "EPOCH": "2023-06-18T20:37:09.148224",
    "MEAN_MOTION": 15.02198603,
    "ECCENTRICITY": 0.0001456,
    "INCLINATION": 43.0047,
    "RA_OF_ASC_NODE": 357.0661,
    "ARG_OF_PERICENTER": 270.6317,
    "MEAN_ANOMALY": 89.4358,
    "EPHEMERIS_TYPE": 0,
    "CLASSIFICATION_TYPE": "U",
    "NORAD_CAT_ID": 55622,
    "ELEMENT_SET_NO": 999,
    "REV_AT_EPOCH": 1942,
    "BSTAR": 0.0039168,
    "MEAN_MOTION_DOT": 0.00052631,
    "MEAN_MOTION_DDOT": 0
},{
    "OBJECT_NAME": "STARLINK-5698",
    "OBJECT_ID": "2023-020BG",
    "EPOCH": "2023-06-18T23:39:07.626816",
    "MEAN_MOTION": 15.02608378,
    "ECCENTRICITY": 0.0001876,
    "INCLINATION": 43.0054,
    "RA_OF_ASC_NODE": 356.2912,
    "ARG_OF_PERICENTER": 279.6125,
    "MEAN_ANOMALY": 80.4506,
    "EPHEMERIS_TYPE": 0,
    "CLASSIFICATION_TYPE": "U",
    "NORAD_CAT_ID": 55623,
    "ELEMENT_SET_NO": 999,
    "REV_AT_EPOCH": 1944,
    "BSTAR": 0.0006551,
    "MEAN_MOTION_DOT": 8.673e-5,
    "MEAN_MOTION_DDOT": 0
},{
    "OBJECT_NAME": "STARLINK-5484",
    "OBJECT_ID": "2023-021A",
    "EPOCH": "2023-06-18T19:35:20.117184",
    "MEAN_MOTION": 14.98331421,
    "ECCENTRICITY": 0.0003466,
    "INCLINATION": 69.9983,
    "RA_OF_ASC_NODE": 192.9701,
    "ARG_OF_PERICENTER": 268.0638,
    "MEAN_ANOMALY": 92.0125,
    "EPHEMERIS_TYPE": 0,
    "CLASSIFICATION_TYPE": "U",
    "NORAD_CAT_ID": 55628,
    "ELEMENT_SET_NO": 999,
    "REV_AT_EPOCH": 1927,
    "BSTAR": -2.195e-6,
    "MEAN_MOTION_DOT": -1.19e-6,
    "MEAN_MOTION_DDOT": 0
},{
    "OBJECT_NAME": "STARLINK-5497",
    "OBJECT_ID": "2023-021B",
    "EPOCH": "2023-06-18T11:40:40.610496",
    "MEAN_MOTION": 14.98330619,
    "ECCENTRICITY": 0.0003828,
    "INCLINATION": 69.9981,
    "RA_OF_ASC_NODE": 193.827,
    "ARG_OF_PERICENTER": 268.0041,
    "MEAN_ANOMALY": 92.068,
    "EPHEMERIS_TYPE": 0,
    "CLASSIFICATION_TYPE": "U",
    "NORAD_CAT_ID": 55629,
    "ELEMENT_SET_NO": 999,
    "REV_AT_EPOCH": 1922,
    "BSTAR": -2.5621e-5,
    "MEAN_MOTION_DOT": -3.99e-6,
    "MEAN_MOTION_DDOT": 0
},{
    "OBJECT_NAME": "STARLINK-5303",
    "OBJECT_ID": "2023-021C",
    "EPOCH": "2023-06-18T19:29:19.538016",
    "MEAN_MOTION": 14.98330718,
    "ECCENTRICITY": 0.000384,
    "INCLINATION": 69.9981,
    "RA_OF_ASC_NODE": 192.9553,
    "ARG_OF_PERICENTER": 269.2467,
    "MEAN_ANOMALY": 90.8252,
    "EPHEMERIS_TYPE": 0,
    "CLASSIFICATION_TYPE": "U",
    "NORAD_CAT_ID": 55630,
    "ELEMENT_SET_NO": 999,
    "REV_AT_EPOCH": 1927,
    "BSTAR": 1.3651e-6,
    "MEAN_MOTION_DOT": -7.7e-7,
    "MEAN_MOTION_DDOT": 0
},{
    "OBJECT_NAME": "STARLINK-5558",
    "OBJECT_ID": "2023-021D",
    "EPOCH": "2023-06-18T18:53:15.656064",
    "MEAN_MOTION": 14.98330049,
    "ECCENTRICITY": 0.0003817,
    "INCLINATION": 69.9985,
    "RA_OF_ASC_NODE": 192.868,
    "ARG_OF_PERICENTER": 268.1204,
    "MEAN_ANOMALY": 91.9518,
    "EPHEMERIS_TYPE": 0,
    "CLASSIFICATION_TYPE": "U",
    "NORAD_CAT_ID": 55631,
    "ELEMENT_SET_NO": 999,
    "REV_AT_EPOCH": 1927,
    "BSTAR": -3.1942e-5,
    "MEAN_MOTION_DOT": -4.74e-6,
    "MEAN_MOTION_DDOT": 0
},{
    "OBJECT_NAME": "STARLINK-5546",
    "OBJECT_ID": "2023-021E",
    "EPOCH": "2023-06-18T19:17:18.504960",
    "MEAN_MOTION": 14.98319429,
    "ECCENTRICITY": 0.0003748,
    "INCLINATION": 69.9985,
    "RA_OF_ASC_NODE": 192.926,
    "ARG_OF_PERICENTER": 262.3752,
    "MEAN_ANOMALY": 97.6981,
    "EPHEMERIS_TYPE": 0,
    "CLASSIFICATION_TYPE": "U",
    "NORAD_CAT_ID": 55632,
    "ELEMENT_SET_NO": 999,
    "REV_AT_EPOCH": 1927,
    "BSTAR": 0.0001484,
    "MEAN_MOTION_DOT": 1.678e-5,
    "MEAN_MOTION_DDOT": 0
},{
    "OBJECT_NAME": "STARLINK-5498",
    "OBJECT_ID": "2023-021F",
    "EPOCH": "2023-06-18T19:11:17.633760",
    "MEAN_MOTION": 14.98330126,
    "ECCENTRICITY": 0.0003954,
    "INCLINATION": 69.9984,
    "RA_OF_ASC_NODE": 192.9118,
    "ARG_OF_PERICENTER": 268.8685,
    "MEAN_ANOMALY": 91.2021,
    "EPHEMERIS_TYPE": 0,
    "CLASSIFICATION_TYPE": "U",
    "NORAD_CAT_ID": 55633,
    "ELEMENT_SET_NO": 999,
    "REV_AT_EPOCH": 1927,
    "BSTAR": -1.3062e-5,
    "MEAN_MOTION_DOT": -2.49e-6,
    "MEAN_MOTION_DDOT": 0
},{
    "OBJECT_NAME": "STARLINK-5500",
    "OBJECT_ID": "2023-021G",
    "EPOCH": "2023-06-18T19:23:19.234464",
    "MEAN_MOTION": 14.98329285,
    "ECCENTRICITY": 0.0003906,
    "INCLINATION": 69.998,
    "RA_OF_ASC_NODE": 192.9396,
    "ARG_OF_PERICENTER": 269.7351,
    "MEAN_ANOMALY": 90.336,
    "EPHEMERIS_TYPE": 0,
    "CLASSIFICATION_TYPE": "U",
    "NORAD_CAT_ID": 55634,
    "ELEMENT_SET_NO": 999,
    "REV_AT_EPOCH": 1927,
    "BSTAR": -2.4929e-6,
    "MEAN_MOTION_DOT": -1.23e-6,
    "MEAN_MOTION_DDOT": 0
},{
    "OBJECT_NAME": "STARLINK-5495",
    "OBJECT_ID": "2023-021H",
    "EPOCH": "2023-06-19T04:00:00.999936",
    "MEAN_MOTION": 15.11159195,
    "ECCENTRICITY": 0.0003361,
    "INCLINATION": 69.9981,
    "RA_OF_ASC_NODE": 172.3426,
    "ARG_OF_PERICENTER": 268.438,
    "MEAN_ANOMALY": 65.7345,
    "EPHEMERIS_TYPE": 0,
    "CLASSIFICATION_TYPE": "U",
    "NORAD_CAT_ID": 55635,
    "ELEMENT_SET_NO": 999,
    "REV_AT_EPOCH": 1951,
    "BSTAR": -0.061331,
    "MEAN_MOTION_DOT": -0.00951569,
    "MEAN_MOTION_DDOT": 0
},{
    "OBJECT_NAME": "STARLINK-5218",
    "OBJECT_ID": "2023-021J",
    "EPOCH": "2023-06-19T01:23:48.219936",
    "MEAN_MOTION": 14.98328836,
    "ECCENTRICITY": 0.0005142,
    "INCLINATION": 69.9983,
    "RA_OF_ASC_NODE": 192.21,
    "ARG_OF_PERICENTER": 266.9225,
    "MEAN_ANOMALY": 93.1346,
    "EPHEMERIS_TYPE": 0,
    "CLASSIFICATION_TYPE": "U",
    "NORAD_CAT_ID": 55636,
    "ELEMENT_SET_NO": 999,
    "REV_AT_EPOCH": 1901,
    "BSTAR": 4.4019e-5,
    "MEAN_MOTION_DOT": 4.32e-6,
    "MEAN_MOTION_DDOT": 0
},{
    "OBJECT_NAME": "STARLINK-5062",
    "OBJECT_ID": "2023-021K",
    "EPOCH": "2023-06-18T22:00:00.999936",
    "MEAN_MOTION": 15.11837802,
    "ECCENTRICITY": 0.0003254,
    "INCLINATION": 69.9979,
    "RA_OF_ASC_NODE": 172.9671,
    "ARG_OF_PERICENTER": 268.5055,
    "MEAN_ANOMALY": 162.3552,
    "EPHEMERIS_TYPE": 0,
    "CLASSIFICATION_TYPE": "U",
    "NORAD_CAT_ID": 55637,
    "ELEMENT_SET_NO": 999,
    "REV_AT_EPOCH": 130,
    "BSTAR": -0.055553,
    "MEAN_MOTION_DOT": -0.00883456,
    "MEAN_MOTION_DDOT": 0
},{
    "OBJECT_NAME": "STARLINK-5507",
    "OBJECT_ID": "2023-021L",
    "EPOCH": "2023-06-18T19:05:16.976832",
    "MEAN_MOTION": 14.98329711,
    "ECCENTRICITY": 0.0003895,
    "INCLINATION": 69.9983,
    "RA_OF_ASC_NODE": 192.8952,
    "ARG_OF_PERICENTER": 268.4439,
    "MEAN_ANOMALY": 91.6273,
    "EPHEMERIS_TYPE": 0,
    "CLASSIFICATION_TYPE": "U",
    "NORAD_CAT_ID": 55638,
    "ELEMENT_SET_NO": 999,
    "REV_AT_EPOCH": 1927,
    "BSTAR": -3.975e-5,
    "MEAN_MOTION_DOT": -5.67e-6,
    "MEAN_MOTION_DDOT": 0
},{
    "OBJECT_NAME": "STARLINK-5508",
    "OBJECT_ID": "2023-021M",
    "EPOCH": "2023-06-19T04:00:00.999936",
    "MEAN_MOTION": 15.12446976,
    "ECCENTRICITY": 0.0003213,
    "INCLINATION": 69.9988,
    "RA_OF_ASC_NODE": 172.2307,
    "ARG_OF_PERICENTER": 271.2033,
    "MEAN_ANOMALY": 161.4405,
    "EPHEMERIS_TYPE": 0,
    "CLASSIFICATION_TYPE": "U",
    "NORAD_CAT_ID": 55639,
    "ELEMENT_SET_NO": 999,
    "REV_AT_EPOCH": 1951,
    "BSTAR": -0.059245,
    "MEAN_MOTION_DOT": -0.00952714,
    "MEAN_MOTION_DDOT": 0
}]